,region,municipality,installation_name,installation_code,latitude,longitude,process
0,Abitibi-Témiscamingue,Belleterre,Belleterre - Approvisionnement,X2114564,47.3905166,-78.7042972,Chloration
1,Abitibi-Témiscamingue,Latulipe-et-Gaboury,Latulipe-et-Gaboury - Approv.,X2114246,47.4263687,-79.031477,Chloration
2,Abitibi-Témiscamingue,Latulipe-et-Gaboury,Latulipe-et-Gaboury - Approv.,X2114246,47.4263687,-79.031477,Filtration
3,Abitibi-Témiscamingue,Latulipe-et-Gaboury,Latulipe-et-Gaboury - Approv.,X2114246,47.4263687,-79.031477,Ultraviolet
4,Abitibi-Témiscamingue,Laverlochère-Angliers,Angliers - Approvisionnement,X2114253,47.51358965,-79.1556191985192,Chloration
5,Abitibi-Témiscamingue,Macamic,Macamic - Approvisionnement,X2114265,48.7554185,-79.0011559,Chloration
6,Abitibi-Témiscamingue,Macamic,Macamic - Approvisionnement,X2114265,48.7554185,-79.0011559,Filtration
7,Abitibi-Témiscamingue,Macamic,Macamic - Approvisionnement,X2114265,48.7554185,-79.0011559,Charbon
8,Abitibi-Témiscamingue,Rouyn-Noranda,Station de purification Rouyn-noranda,X2114341,48.2420524,-79.0205378,Chloration
9,Abitibi-Témiscamingue,Rouyn-Noranda,Station de purification Rouyn-noranda,X2114341,48.2420524,-79.0205378,Filtration
10,Abitibi-Témiscamingue,Rouyn-Noranda,Station de purification Rouyn-noranda,X2114341,48.2420524,-79.0205378,Charbon
11,Abitibi-Témiscamingue,Témiscaming,Témiscaming - Approvisionnement,X2114319,46.71821,-79.101562,Chloration
12,Abitibi-Témiscamingue,Témiscaming,Témiscaming - Approvisionnement,X2114319,46.71821,-79.101562,Filtration
13,Bas-Saint-Laurent,Dégelis,Station de purification Dégelis,X2114834,47.547799,-68.644638,Chloration
14,Bas-Saint-Laurent,Dégelis,Station de purification Dégelis,X2114834,47.547799,-68.644638,Filtration
15,Bas-Saint-Laurent,Dégelis,Station de purification Dégelis,X2114834,47.547799,-68.644638,Charbon
16,Bas-Saint-Laurent,Grosses-Roches,Station de purification Grosses-Roches,X0009832,48.9382206,-67.1703669,Chloration
17,Bas-Saint-Laurent,Grosses-Roches,Station de purification Grosses-Roches,X0009832,48.9382206,-67.1703669,Ultraviolet
18,Bas-Saint-Laurent,La Rédemption,Station de purification La Rédemption,X0009775,48.445145,-67.879715,Chloration
19,Bas-Saint-Laurent,Lac-au-Saumon,Station de purification Lac-au-Saumon,X0008358,48.4214041,-67.3464919,Chloration
20,Bas-Saint-Laurent,Lac-au-Saumon,Système d'approvisionnement sans traitement Parc maison mobile Parent - Réseau 1,X2114824,48.4214041,-67.3464919,None
21,Bas-Saint-Laurent,Lac-au-Saumon,Système d'approvisionnement sans traitement Parc maison mobile Parent - Réseau 2,X2114826,48.4214041,-67.3464919,None
22,Bas-Saint-Laurent,Les Méchins,Station de purification Les Méchins - Nouvelle usine,X2124553,48.9991564,-66.9845841,Chloration
23,Bas-Saint-Laurent,Les Méchins,Station de purification Les Méchins - Nouvelle usine,X2124553,48.9991564,-66.9845841,Filtration
24,Bas-Saint-Laurent,Les Méchins,Station de purification Les Méchins - Nouvelle usine,X2124553,48.9991564,-66.9845841,Ozonation
25,Bas-Saint-Laurent,Mont-Carmel,Station de purification Mont-Carmel,X0008713,45.9789982,-72.3828408,Chloration
26,Bas-Saint-Laurent,Mont-Carmel,Station de purification Mont-Carmel,X0008713,45.9789982,-72.3828408,Filtration
27,Bas-Saint-Laurent,Mont-Joli,Station de purification Mont-Joli,X0009742,48.583875,-68.183899,Chloration
28,Bas-Saint-Laurent,Mont-Joli,Station de purification Mont-Joli,X0009742,48.583875,-68.183899,Filtration
29,Bas-Saint-Laurent,Mont-Joli,Station de purification Mont-Joli,X0009742,48.583875,-68.183899,Ultraviolet
30,Bas-Saint-Laurent,Notre-Dame-des-Neiges,Station de purification Trois-Pistoles (nouvelle usine),X2067217,48.1110946,-69.1602984,Chloration
31,Bas-Saint-Laurent,Notre-Dame-des-Neiges,Station de purification Trois-Pistoles (nouvelle usine),X2067217,48.1110946,-69.1602984,Filtration
32,Bas-Saint-Laurent,Notre-Dame-des-Neiges,Station de purification Trois-Pistoles (nouvelle usine),X2067217,48.1110946,-69.1602984,Charbon
33,Bas-Saint-Laurent,Notre-Dame-des-Neiges,Station de purification Trois-Pistoles (nouvelle usine),X2067217,48.1110946,-69.1602984,Ultraviolet
34,Bas-Saint-Laurent,Rivière-du-Loup,Station de purification Rivière-du-Loup,X0008221,47.8358164,-69.5368025,Chloration
35,Bas-Saint-Laurent,Rivière-du-Loup,Station de purification Rivière-du-Loup,X0008221,47.8358164,-69.5368025,Filtration
36,Bas-Saint-Laurent,Saint-Donat,Station de purification Saint-Donat,X0009746,48.497498,-68.247757,Chloration
37,Bas-Saint-Laurent,Saint-Elzéar-de-Témiscouata,Système d'approvisionnement sans traitement Village Saint-Elzéar,X2052656,47.592736,-69.096451,None
38,Bas-Saint-Laurent,Saint-Fabien,Station de purification Saint-Fabien,X0009793,48.2950199,-68.8678927,Chloration
39,Bas-Saint-Laurent,Saint-Fabien,Station de purification Saint-Fabien,X0009793,48.2950199,-68.8678927,Filtration
40,Bas-Saint-Laurent,Saint-Gabriel-de-Rimouski,Station de purification Saint-Gabriel-de-Rimouski,X0010622,48.422821,-68.174286,Chloration
41,Bas-Saint-Laurent,Saint-Pascal,Station de purification Saint-Pascal,X0008679,47.5266271,-69.8074463,Chloration
42,Bas-Saint-Laurent,Saint-Pascal,Station de purification Saint-Pascal,X0008679,47.5266271,-69.8074463,Filtration
43,Bas-Saint-Laurent,Saint-Ulric,Station de purification Saint-Ulric,X0009858,48.7881708,-67.6961193,Chloration
44,Bas-Saint-Laurent,Sainte-Anne-de-la-Pocatière,Station de purification La Pocatière,X0008614,47.339288,-70.010376,Chloration
45,Bas-Saint-Laurent,Sainte-Anne-de-la-Pocatière,Station de purification La Pocatière,X0008614,47.339288,-70.010376,Filtration
46,Bas-Saint-Laurent,Sainte-Félicité,Station de purification Sainte-Félicité,X0009842,48.9010189,-67.3373897,Chloration
47,Bas-Saint-Laurent,Sayabec,Station de purification Sayabec,X0010453,48.566157,-67.688141,Chloration
48,Bas-Saint-Laurent,Témiscouata-sur-le-Lac,Station de purification Cabano (nouvelle usine),X2124413,47.684343,-68.883591,Chloration
49,Bas-Saint-Laurent,Témiscouata-sur-le-Lac,Station de purification Cabano (nouvelle usine),X2124413,47.684343,-68.883591,Filtration
50,Bas-Saint-Laurent,Témiscouata-sur-le-Lac,Station de purification Notre-Dame-du-Lac,X0008840,47.684343,-68.883591,Chloration
51,Capitale-Nationale,Beaupré,Installation de production d'eau potable Beaupré,X0008975,47.043926,-70.892029,Chloration
52,Capitale-Nationale,Beaupré,Installation de production d'eau potable Beaupré,X0008975,47.043926,-70.892029,Filtration
53,Capitale-Nationale,Boischatel,Installation de production d'eau potable Boischatel,X0009111,46.896801,-71.135788,Chloration
54,Capitale-Nationale,Boischatel,Installation de production d'eau potable Boischatel,X0009111,46.896801,-71.135788,Filtration
55,Capitale-Nationale,Château-Richer,Installation de production d'eau potable Chateau-Richer,X0008998,46.971117,-71.017685,Chloration
56,Capitale-Nationale,Château-Richer,Installation de production d'eau potable Chateau-Richer,X0008998,46.971117,-71.017685,Filtration
57,Capitale-Nationale,Château-Richer,Installation de production d'eau potable Chateau-Richer,X0008998,46.971117,-71.017685,Ultraviolet
58,Capitale-Nationale,Donnacona,Installation de production d'eau potable Donnacona,X0008212,46.676532,-71.73008,Chloration
59,Capitale-Nationale,Donnacona,Installation de production d'eau potable Donnacona,X0008212,46.676532,-71.73008,Filtration
60,Capitale-Nationale,Québec,Installation de production d'eau potable - UTE Beauport,X0010056,46.8259601,-71.2352226,Chloration
61,Capitale-Nationale,Québec,Installation de production d'eau potable - UTE Beauport,X0010056,46.8259601,-71.2352226,Filtration
62,Capitale-Nationale,Québec,Installation de production d'eau potable - UTE Beauport,X0010056,46.8259601,-71.2352226,Ozonation
63,Capitale-Nationale,Québec,Installation de production d'eau potable - UTE Charlesbourg,X0010062,46.8259601,-71.2352226,Chloration
64,Capitale-Nationale,Québec,Installation de production d'eau potable - UTE Charlesbourg,X0010062,46.8259601,-71.2352226,Filtration
65,Capitale-Nationale,Québec,Installation de production d'eau potable - UTE Charlesbourg,X0010062,46.8259601,-71.2352226,Ozonation
66,Capitale-Nationale,Québec,Installation de production d'eau potable - UTE Charlesbourg,X0010062,46.8259601,-71.2352226,Charbon
67,Capitale-Nationale,Québec,Installation de production d'eau potable - UTE Québec,X0008181,46.8259601,-71.2352226,Chloration
68,Capitale-Nationale,Québec,Installation de production d'eau potable - UTE Québec,X0008181,46.8259601,-71.2352226,Filtration
69,Capitale-Nationale,Québec,Installation de production d'eau potable - UTE Québec,X0008181,46.8259601,-71.2352226,Ozonation
70,Capitale-Nationale,Québec,Installation de production d'eau potable - UTE Sainte-Foy,X0008186,46.8259601,-71.2352226,Chloration
71,Capitale-Nationale,Québec,Installation de production d'eau potable - UTE Sainte-Foy,X0008186,46.8259601,-71.2352226,Filtration
72,Capitale-Nationale,Québec,Installation de production d'eau potable - UTE Sainte-Foy,X0008186,46.8259601,-71.2352226,Ozonation
73,Capitale-Nationale,Saint-Casimir,Installation de production d'eau potable Saint-Casimir,X0010389,46.656506,-72.139664,Chloration
74,Capitale-Nationale,Saint-Casimir,Installation de production d'eau potable Saint-Casimir,X0010389,46.656506,-72.139664,Filtration
75,Capitale-Nationale,Saint-Casimir,"Installation de production d'eau potable Saint-Casimir, Pied de la Montagne",X2111605,46.656506,-72.139664,Chloration
76,Capitale-Nationale,Saint-Casimir,"Installation de production d'eau potable Saint-Casimir, Pied de la Montagne",X2111605,46.656506,-72.139664,Filtration
77,Capitale-Nationale,Saint-Irénée,Installation de production d'eau potable Saint-Irénée,X0008788,47.5717315,-70.2077774,Chloration
78,Capitale-Nationale,Saint-Irénée,Installation de production d'eau potable Saint-Irénée,X0008788,47.5717315,-70.2077774,Filtration
79,Capitale-Nationale,Saint-Irénée,Installation de production d'eau potable Saint-Irénée,X0008788,47.5717315,-70.2077774,Ultraviolet
80,Capitale-Nationale,Saint-Thuribe,Installation de production d'eau potable Saint-Casimir,X0010389,46.7080891,-72.1632861,Chloration
81,Capitale-Nationale,Saint-Thuribe,Installation de production d'eau potable Saint-Casimir,X0010389,46.7080891,-72.1632861,Filtration
82,Capitale-Nationale,Sainte-Catherine-de-la-Jacques-Cartier,Installation de production d'eau potable Duchesnay,X0010966,46.84493,-71.615067,Chloration
83,Capitale-Nationale,Sainte-Catherine-de-la-Jacques-Cartier,Installation de production d'eau potable Duchesnay,X0010966,46.84493,-71.615067,Filtration
84,Centre-du-Québec,Bécancour,Station de purification Bécancour (sta.pur.),X0008299,46.3715923,-72.1856343,Chloration
85,Centre-du-Québec,Bécancour,Station de purification Bécancour (sta.pur.),X0008299,46.3715923,-72.1856343,Filtration
86,Centre-du-Québec,Bécancour,Station de purification Bécancour (sta.pur.),X0008299,46.3715923,-72.1856343,Ozonation
87,Centre-du-Québec,Daveluyville,Station de purification Daveluyville. (sta. pur.),X0008651,46.20431,-72.137604,Chloration
88,Centre-du-Québec,Daveluyville,Station de purification Daveluyville. (sta. pur.),X0008651,46.20431,-72.137604,Filtration
89,Centre-du-Québec,Daveluyville,Station de purification Daveluyville. (sta. pur.),X0008651,46.20431,-72.137604,Charbon
90,Centre-du-Québec,Drummondville,Installation de production Drummondville (sta. pur.),X0010740,45.8864303,-72.5018764,Chloration
91,Centre-du-Québec,Drummondville,Installation de production Drummondville (sta. pur.),X0010740,45.8864303,-72.5018764,Filtration
92,Centre-du-Québec,Drummondville,Installation de production Drummondville (sta. pur.),X0010740,45.8864303,-72.5018764,Charbon
93,Centre-du-Québec,Nicolet,Station de purification Nicolet. (sta.pur.),X0008234,46.2273284,-72.6191889,Chloration
94,Centre-du-Québec,Nicolet,Station de purification Nicolet. (sta.pur.),X0008234,46.2273284,-72.6191889,Filtration
95,Centre-du-Québec,Pierreville,Station de purification R.I.A.E.P.B.S.F. (sta.pur.),X0010516,46.070134,-72.810173,Chloration
96,Centre-du-Québec,Pierreville,Station de purification R.I.A.E.P.B.S.F. (sta.pur.),X0010516,46.070134,-72.810173,Filtration
97,Centre-du-Québec,Pierreville,Station de purification R.I.A.E.P.B.S.F. (sta.pur.),X0010516,46.070134,-72.810173,Ozonation
98,Centre-du-Québec,Plessisville,Installation de purification Plessisville (sta. pur.),X0008079,46.219515,-71.771965,Chloration
99,Centre-du-Québec,Plessisville,Installation de purification Plessisville (sta. pur.),X0008079,46.219515,-71.771965,Filtration
100,Centre-du-Québec,Plessisville,Installation de purification Plessisville (sta. pur.),X0008079,46.219515,-71.771965,Charbon
101,Centre-du-Québec,Saint-Pierre-les-Becquets,Station de purification Saint-Pierre-les-Becque. (post.chl.),X0010543,46.502882,-72.203522,Chloration
102,Centre-du-Québec,Saint-Pierre-les-Becquets,Station de purification Saint-Pierre-les-Becque. (post.chl.),X0010543,46.502882,-72.203522,Filtration
103,Centre-du-Québec,Saint-Pierre-les-Becquets,Station de purification Saint-Pierre-les-Becque. (post.chl.),X0010543,46.502882,-72.203522,Ultraviolet
104,Centre-du-Québec,Victoriaville,Station de purification Victoriaville (sta.pur.),X0010730,46.0573705,-71.9536674,Chloration
105,Centre-du-Québec,Victoriaville,Station de purification Victoriaville (sta.pur.),X0010730,46.0573705,-71.9536674,Filtration
106,Centre-du-Québec,Victoriaville,Station de purification Victoriaville (sta.pur.),X0010730,46.0573705,-71.9536674,Ozonation
107,Centre-du-Québec,Victoriaville,Station de purification Victoriaville (sta.pur.),X0010730,46.0573705,-71.9536674,Charbon
108,Chaudière-Appalaches,Beauceville,Installation de production Beauceville,X0008259,46.210725,-70.774269,Chloration
109,Chaudière-Appalaches,Beauceville,Installation de production Beauceville,X0008259,46.210725,-70.774269,Filtration
110,Chaudière-Appalaches,L'Islet,Installation de production L'Islet,X0009054,47.1037283,-70.0550253,Chloration
111,Chaudière-Appalaches,L'Islet,Installation de production L'Islet,X0009054,47.1037283,-70.0550253,Filtration
112,Chaudière-Appalaches,L'Islet,Installation de production L'Islet,X0009054,47.1037283,-70.0550253,Charbon
113,Chaudière-Appalaches,Lac-Etchemin,Installation de production Lac-Etchemin,X0008245,46.398804,-70.508194,Chloration
114,Chaudière-Appalaches,Lac-Etchemin,Installation de production Lac-Etchemin,X0008245,46.398804,-70.508194,Filtration
115,Chaudière-Appalaches,Lac-Etchemin,Installation de production Lac-Etchemin,X0008245,46.398804,-70.508194,Ozonation
116,Chaudière-Appalaches,Lévis,Installation de production Charny,X0008980,46.7910096,-71.1753274,Chloration
117,Chaudière-Appalaches,Lévis,Installation de production Charny,X0008980,46.7910096,-71.1753274,Filtration
118,Chaudière-Appalaches,Lévis,Installation de production Charny,X0008980,46.7910096,-71.1753274,Ozonation
119,Chaudière-Appalaches,Lévis,Installation de production Charny,X0008980,46.7910096,-71.1753274,Ultraviolet
120,Chaudière-Appalaches,Lévis,Installation de production Lévis,X0010696,46.7910096,-71.1753274,Chloration
121,Chaudière-Appalaches,Lévis,Installation de production Lévis,X0010696,46.7910096,-71.1753274,Filtration
122,Chaudière-Appalaches,Lévis,Installation de production Lévis,X0010696,46.7910096,-71.1753274,Ozonation
123,Chaudière-Appalaches,Lévis,Installation de production St-Romuald,X0010478,46.7910096,-71.1753274,Chloration
124,Chaudière-Appalaches,Lévis,Installation de production St-Romuald,X0010478,46.7910096,-71.1753274,Filtration
125,Chaudière-Appalaches,Lévis,Installation de production St-Romuald,X0010478,46.7910096,-71.1753274,Ozonation
126,Chaudière-Appalaches,Lévis,Installation de production St-Romuald,X0010478,46.7910096,-71.1753274,Ultraviolet
127,Chaudière-Appalaches,Montmagny,Installation de production Montmagny,X0008218,46.9826328,-70.555916,Chloration
128,Chaudière-Appalaches,Montmagny,Installation de production Montmagny,X0008218,46.9826328,-70.555916,Filtration
129,Chaudière-Appalaches,Saint-Anselme,Installation de production St-Anselme,X0009736,46.6296389,-70.9705238,Chloration
130,Chaudière-Appalaches,Saint-Anselme,Installation de production St-Anselme,X0009736,46.6296389,-70.9705238,Filtration
131,Chaudière-Appalaches,Saint-Anselme,Installation de production St-Anselme,X0009736,46.6296389,-70.9705238,Charbon
132,Chaudière-Appalaches,Saint-Anselme,Installation de production St-Anselme,X0009736,46.6296389,-70.9705238,Ultraviolet
133,Chaudière-Appalaches,Saint-François-de-la-Rivière-du-Sud,Installation de production Saint-Francois-de-la-Riv.-du-Sud,X0008296,46.887181,-70.714531,Chloration
134,Chaudière-Appalaches,Saint-François-de-la-Rivière-du-Sud,Installation de production Saint-Francois-de-la-Riv.-du-Sud,X0008296,46.887181,-70.714531,Filtration
135,Chaudière-Appalaches,Saint-François-de-la-Rivière-du-Sud,Installation de production Saint-Francois-de-la-Riv.-du-Sud,X0008296,46.887181,-70.714531,Ozonation
136,Chaudière-Appalaches,Saint-François-de-la-Rivière-du-Sud,Installation de production Saint-Francois-de-la-Riv.-du-Sud,X0008296,46.887181,-70.714531,Charbon
137,Chaudière-Appalaches,Saint-Georges,Installation de production Saint-Georges,X0010687,46.122987,-70.671959,Chloration
138,Chaudière-Appalaches,Saint-Georges,Installation de production Saint-Georges,X0010687,46.122987,-70.671959,Filtration
139,Chaudière-Appalaches,Saint-Georges,Installation de production Saint-Georges,X0010687,46.122987,-70.671959,Ozonation
140,Chaudière-Appalaches,Saint-Georges,Installation de production Saint-Georges,X0010687,46.122987,-70.671959,Charbon
141,Chaudière-Appalaches,Saint-Henri,Installation de production Saint-Henri,X2002636,45.4784602,-73.5846178,Chloration
142,Chaudière-Appalaches,Saint-Henri,Installation de production Saint-Henri,X2002636,45.4784602,-73.5846178,Filtration
143,Chaudière-Appalaches,Saint-Henri,Installation de production Saint-Henri,X2002636,45.4784602,-73.5846178,Charbon
144,Chaudière-Appalaches,Saint-Henri,Installation de production Saint-Henri,X2002636,45.4784602,-73.5846178,Ultraviolet
145,Chaudière-Appalaches,Saint-Jean-Port-Joli,Installation de production Saint-Jean-Port-Joli,X0009043,47.2144457,-70.2692296,Chloration
146,Chaudière-Appalaches,Saint-Jean-Port-Joli,Installation de production Saint-Jean-Port-Joli,X0009043,47.2144457,-70.2692296,Filtration
147,Chaudière-Appalaches,Saint-Jean-Port-Joli,Installation de production Saint-Jean-Port-Joli,X0009043,47.2144457,-70.2692296,Ozonation
148,Chaudière-Appalaches,Sainte-Marie,Installation de production Sainte-Marie,X2134730,46.450395,-71.030731,Chloration
149,Chaudière-Appalaches,Sainte-Marie,Installation de production Sainte-Marie,X2134730,46.450395,-71.030731,Filtration
150,Chaudière-Appalaches,Sainte-Marie,Installation de production Sainte-Marie,X2134730,46.450395,-71.030731,Ozonation
151,Chaudière-Appalaches,Sainte-Marie,Installation de production Sainte-Marie,X2134730,46.450395,-71.030731,Ultraviolet
152,Chaudière-Appalaches,Thetford Mines,Installation de production Thetford Mines,X0010786,46.091329,-71.30127,Chloration
153,Chaudière-Appalaches,Thetford Mines,Installation de production Thetford Mines,X0010786,46.091329,-71.30127,Filtration
154,Côte-Nord,Baie-Comeau,Station de purification Baie-Comeau (Mingan) (aut.trai.),X0010426,49.217597,-68.152313,Chloration
155,Côte-Nord,Baie-Comeau,Station de purification Baie-Comeau (St-Georges)(post.chl.),X0010425,49.217597,-68.152313,Chloration
156,Côte-Nord,Baie-Comeau,Station de purification Baie-Comeau(Ste-Amélie) (post.chl.),X0010423,49.217597,-68.152313,Chloration
157,Côte-Nord,Baie-Johan-Beetz,Station de purification Baie-Johan-Beetz (aut.trai.),X0009692,50.289411,-62.8063611,Chloration
158,Côte-Nord,Chute-aux-Outardes,Station de purification Chutes-aux-Outardes (post.chl.),X0008237,49.1260796,-68.3928985,Chloration
159,Côte-Nord,Côte-Nord-du-Golfe-du-Saint-Laurent,Station de purification (Harrington-Harbour 2011),X2132535,50.48120355,-59.7830105013592,Chloration
160,Côte-Nord,Côte-Nord-du-Golfe-du-Saint-Laurent,Station de purification (Harrington-Harbour 2011),X2132535,50.48120355,-59.7830105013592,Filtration
161,Côte-Nord,Côte-Nord-du-Golfe-du-Saint-Laurent,Station de purification (Harrington-Harbour 2011),X2132535,50.48120355,-59.7830105013592,Ultraviolet
162,Côte-Nord,Fermont,Station de purification Fermont (aut.trai.),X0009997,52.7931065,-67.0845797,Chloration
163,Côte-Nord,Kawawachikamach,Station de purification de Kawawachikamach (aut. trai.),X2092640,54.863037,-66.757878,Chloration
164,Côte-Nord,Kawawachikamach,Station de purification de Kawawachikamach (aut. trai.),X2092640,54.863037,-66.757878,Filtration
165,Côte-Nord,Kawawachikamach,Station de purification de Kawawachikamach (aut. trai.),X2092640,54.863037,-66.757878,Ultraviolet
166,Côte-Nord,La Romaine,Station de purification (Bande indienne de montagnais de la Romaine),X2094939,50.2130197,-60.6762607,Chloration
167,Côte-Nord,La Romaine,Station de purification (Bande indienne de montagnais de la Romaine),X2094939,50.2130197,-60.6762607,Filtration
168,Côte-Nord,Les Bergeronnes,Station de purification Les Bergeronnes (post.chl.),X0009961,48.243882,-69.545517,Chloration
169,Côte-Nord,Les Escoumins,Station de purification Escoumins (post.chl.),X0008243,48.34621,-69.404068,Chloration
170,Côte-Nord,Port-Cartier,Station de purification Port-Cartier (aut. trait. 2001),X0008255,50.0256962,-66.8818986,Chloration
171,Côte-Nord,Port-Cartier,Station de purification Port-Cartier (aut. trait. 2001),X0008255,50.0256962,-66.8818986,Filtration
172,Côte-Nord,Port-Cartier,Station de purification Riviere-Pentecôte (post.chl.),X0009699,50.0256962,-66.8818986,Chloration
173,Côte-Nord,Saint-Augustin,Station de purification Saint-Augustin (aut. trai. 2011),X0010722,48.8047399,-71.9449811,Chloration
174,Côte-Nord,Saint-Augustin,Station de purification Saint-Augustin (aut. trai. 2011),X0010722,48.8047399,-71.9449811,Filtration
175,Côte-Nord,Schefferville,Station de purification Schefferville(post.chl.),X0009570,54.8005133,-66.820626,Chloration
176,Côte-Nord,Sept-Îles,Station de purification Sept-Îles (aut. trai.),X0008231,50.2109579,-66.3790642,Chloration
177,Côte-Nord,Sept-Îles,Station de purification Sept-Îles (aut. trai.),X0008231,50.2109579,-66.3790642,Filtration
178,Côte-Nord,Tadoussac,Station de purification Tadoussac (aut. trait.),X0008310,48.1433429,-69.7174574,Chloration
179,Côte-Nord,Tadoussac,Station de purification Tadoussac (aut. trait.),X0008310,48.1433429,-69.7174574,Ultraviolet
180,Estrie,Asbestos,Station de purification Asbestos,X0008198,45.776623,-71.932297,Chloration
181,Estrie,Asbestos,Station de purification Asbestos,X0008198,45.776623,-71.932297,Filtration
182,Estrie,Asbestos,Station de purification Asbestos,X0008198,45.776623,-71.932297,Charbon
183,Estrie,Danville,Station de purification Danville,X0008336,45.785278,-72.0158562,Chloration
184,Estrie,Danville,Station de purification Danville,X0008336,45.785278,-72.0158562,Filtration
185,Estrie,Eastman,Station de purification Eastman,X0008524,45.300973,-72.315102,Chloration
186,Estrie,Magog,Station de purification Ville de Magog,X0008196,45.265463,-72.147903,Chloration
187,Estrie,North Hatley,Poste d'eau potable North Hatley (RIEM),X2128577,45.275611,-71.972122,Chloration
188,Estrie,North Hatley,Poste d'eau potable North Hatley (RIEM),X2128577,45.275611,-71.972122,Filtration
189,Estrie,North Hatley,Poste d'eau potable North Hatley (RIEM),X2128577,45.275611,-71.972122,Charbon
190,Estrie,North Hatley,Poste d'eau potable North Hatley (RIEM),X2128577,45.275611,-71.972122,Ultraviolet
191,Estrie,Potton,Station de purification Potton-Secteur Owl's Head,X0008501,45.08306525,-72.381609047102,Chloration
192,Estrie,Potton,Station de purification Potton-Secteur Owl's Head,X0008501,45.08306525,-72.381609047102,Filtration
193,Estrie,Potton,Station de purification Potton-Secteur Owl's Head,X0008501,45.08306525,-72.381609047102,Ultraviolet
194,Estrie,Saint-Benoît-du-Lac,Station de purification St-Benoît-du-Lac,X0008273,45.167757,-72.268753,Chloration
195,Estrie,Saint-Benoît-du-Lac,Station de purification St-Benoît-du-Lac,X0008273,45.167757,-72.268753,Filtration
196,Estrie,Saint-Benoît-du-Lac,Station de purification St-Benoît-du-Lac,X0008273,45.167757,-72.268753,Ultraviolet
197,Estrie,Saint-Denis-de-Brompton,Station de purification Domaine Forest-Poste chloration,X2080359,45.457963,-72.080612,Chloration
198,Estrie,Saint-Denis-de-Brompton,Station de purification Domaine Forest-Poste chloration,X2080359,45.457963,-72.080612,Filtration
199,Estrie,Saint-Denis-de-Brompton,Station de purification Domaine Forest-Poste chloration,X2080359,45.457963,-72.080612,Ultraviolet
200,Estrie,Sherbrooke,Station de purification Sherbrooke,X0008189,45.403271,-71.889038,Chloration
201,Estrie,Sherbrooke,Station de purification Sherbrooke,X0008189,45.403271,-71.889038,Filtration
202,Estrie,Sherbrooke,Station de purification Sherbrooke,X0008189,45.403271,-71.889038,Ozonation
203,Estrie,Valcourt,Station de purification Ville de Valcourt,X0008608,45.493834,-72.315102,Chloration
204,Estrie,Valcourt,Station de purification Ville de Valcourt,X0008608,45.493834,-72.315102,Ultraviolet
205,Estrie,Waterville,Station de purification Waterville,X0009298,45.277061,-71.890755,Chloration
206,Estrie,Waterville,Station de purification Waterville,X0009298,45.277061,-71.890755,Ultraviolet
207,Estrie,Windsor,Station de purification Windsor,X0500436,45.5699828,-72.003402,Chloration
208,Estrie,Windsor,Station de purification Windsor,X0500436,45.5699828,-72.003402,Filtration
209,Gaspésie—Îles-de-la-Madeleine,Chandler,Station de purification - Newport - Pabos Mills (poste de chloration) (Ville de Chandler),X0009077,48.3485676,-64.6783785,Chloration
210,Gaspésie—Îles-de-la-Madeleine,Chandler,Station de purification - Newport - Pabos Mills (poste de chloration) (Ville de Chandler),X0009077,48.3485676,-64.6783785,Ultraviolet
211,Gaspésie—Îles-de-la-Madeleine,Cloridorme,Station de purification - Cloridorme (poste chl.),X0009052,49.1857903,-64.8527274,Chloration
212,Gaspésie—Îles-de-la-Madeleine,Gaspé,Station de purification - Centre-ville Gaspé (poste chl.),X0009057,48.6580556,-65.7527778,Chloration
213,Gaspésie—Îles-de-la-Madeleine,Gaspé,Station de purification d'eau - Rivière-au-Renard (Ville de Gaspé) (poste chloration),X0009058,48.6580556,-65.7527778,Chloration
214,Gaspésie—Îles-de-la-Madeleine,Gaspé,Système d'approv. sans traitement - Aqueduc la montagne (Gaspé secteur Anse-à-Valleau),X1101276,48.6580556,-65.7527778,None
215,Gaspésie—Îles-de-la-Madeleine,Gaspé,Système d'approvisionnement sans traitement - Coopérative d'aqueduc de L'Anse au Griffon,X1101278,48.6580556,-65.7527778,None
216,Gaspésie—Îles-de-la-Madeleine,Grande-Rivière,Station de purification - Grande-Rivière (poste chl.),X0009995,50.2662228,-63.4595368,Chloration
217,Gaspésie—Îles-de-la-Madeleine,Grande-Rivière,Station de purification - Grande-Rivière (poste chl.),X0009995,50.2662228,-63.4595368,Filtration
218,Gaspésie—Îles-de-la-Madeleine,La Martre,Système d'approvisionnement en eau sans traitement - La Martre (secteur Est) (auberge),X0009025,49.2055595,-66.1656078,None
219,Gaspésie—Îles-de-la-Madeleine,La Martre,Système d'approvisionnement en eau sans traitement La Martre (secteur Ouest) (bureau mun.),X0009024,49.2055595,-66.1656078,None
220,Gaspésie—Îles-de-la-Madeleine,Murdochville,Station de purification - Ville de Murdochville (poste chl.),X0009039,48.9600704,-65.4946106,Chloration
221,Gaspésie—Îles-de-la-Madeleine,Percé,Station de purification - Percé (poste chl.),X0009061,48.5222989,-64.2136423,Chloration
222,Lanaudière,Berthierville,"Station de purification, Berthierville",X0008659,46.0828098,-73.1747099,Chloration
223,Lanaudière,Berthierville,"Station de purification, Berthierville",X0008659,46.0828098,-73.1747099,Filtration
224,Lanaudière,Berthierville,"Station de purification, Berthierville",X0008659,46.0828098,-73.1747099,Ultraviolet
225,Lanaudière,Crabtree,"Station de purification, Crabtree",X0008665,45.963799,-73.473816,Chloration
226,Lanaudière,Crabtree,"Station de purification, Crabtree",X0008665,45.963799,-73.473816,Filtration
227,Lanaudière,Crabtree,"Station de purification, Crabtree",X0008665,45.963799,-73.473816,Charbon
228,Lanaudière,Joliette,"Station de purification, Joliette",X0008098,46.0528409,-73.4617483,Chloration
229,Lanaudière,Joliette,"Station de purification, Joliette",X0008098,46.0528409,-73.4617483,Filtration
230,Lanaudière,Joliette,"Station de purification, Joliette",X0008098,46.0528409,-73.4617483,Ozonation
231,Lanaudière,L'Assomption,"Station de purification, L'Assomption",X0008686,45.8300781,-73.4414925,Chloration
232,Lanaudière,L'Assomption,"Station de purification, L'Assomption",X0008686,45.8300781,-73.4414925,Filtration
233,Lanaudière,L'Assomption,"Station de purification, L'Assomption",X0008686,45.8300781,-73.4414925,Ozonation
234,Lanaudière,L'Assomption,"Station de purification, L'Assomption",X0008686,45.8300781,-73.4414925,Charbon
235,Lanaudière,L'Épiphanie,"Station de purification, L'Épiphanie",X0008718,45.8496673,-73.4820525,Chloration
236,Lanaudière,L'Épiphanie,"Station de purification, L'Épiphanie",X0008718,45.8496673,-73.4820525,Filtration
237,Lanaudière,L'Épiphanie,"Station de purification, L'Épiphanie",X0008718,45.8496673,-73.4820525,Ozonation
238,Lanaudière,L'Épiphanie,"Station de purification, L'Épiphanie",X0008718,45.8496673,-73.4820525,Ultraviolet
239,Lanaudière,Lavaltrie,"Station de purification, Lavaltrie",X0008671,45.883078,-73.282242,Chloration
240,Lanaudière,Lavaltrie,"Station de purification, Lavaltrie",X0008671,45.883078,-73.282242,Filtration
241,Lanaudière,Lavaltrie,"Station de purification, Lavaltrie",X0008671,45.883078,-73.282242,Ultraviolet
242,Lanaudière,Rawdon,"Station de purification, Rawdon, rivière Ouareau (nanofiltration+UV)",X2137144,46.0454129,-73.7107666,Chloration
243,Lanaudière,Rawdon,"Station de purification, Rawdon, rivière Ouareau (nanofiltration+UV)",X2137144,46.0454129,-73.7107666,Filtration
244,Lanaudière,Rawdon,"Station de purification, Rawdon, rivière Ouareau (nanofiltration+UV)",X2137144,46.0454129,-73.7107666,Ultraviolet
245,Lanaudière,Repentigny,Station de purification - Ville de Repentigny,11430600,45.7326055,-73.4528307,Chloration
246,Lanaudière,Repentigny,Station de purification - Ville de Repentigny,11430600,45.7326055,-73.4528307,Filtration
247,Lanaudière,Repentigny,Station de purification - Ville de Repentigny,11430600,45.7326055,-73.4528307,Ozonation
248,Lanaudière,Repentigny,Station de purification - Ville de Repentigny,11430600,45.7326055,-73.4528307,Charbon
249,Lanaudière,Saint-Charles-Borromée,"Station de purification d'eau potable, St-Charles-Borromée municipal",X0009159,46.04931435,-73.4733143041748,Chloration
250,Lanaudière,Saint-Charles-Borromée,"Station de purification d'eau potable, St-Charles-Borromée municipal",X0009159,46.04931435,-73.4733143041748,Filtration
251,Lanaudière,Saint-Charles-Borromée,"Station de purification d'eau potable, St-Charles-Borromée municipal",X0009159,46.04931435,-73.4733143041748,Ozonation
252,Lanaudière,Saint-Charles-Borromée,"Station de purification d'eau potable, St-Charles-Borromée municipal",X0009159,46.04931435,-73.4733143041748,Charbon
253,Lanaudière,Saint-Cuthbert,"Station de purification, St-Cuthbert",90276130,46.14987,-73.227997,Chloration
254,Lanaudière,Saint-Cuthbert,"Station de purification, St-Cuthbert",90276130,46.14987,-73.227997,Filtration
255,Lanaudière,Terrebonne,"Station de purification, Terrebonne, Régie intermunicipale des Moulins",24846859,45.7081005,-73.6515157,Chloration
256,Lanaudière,Terrebonne,"Station de purification, Terrebonne, Régie intermunicipale des Moulins",24846859,45.7081005,-73.6515157,Filtration
257,Lanaudière,Terrebonne,"Station de purification, Terrebonne, Régie intermunicipale des Moulins",24846859,45.7081005,-73.6515157,Ozonation
258,Lanaudière,Terrebonne,"Station de purification, Terrebonne, Régie intermunicipale des Moulins",24846859,45.7081005,-73.6515157,Ultraviolet
259,Laurentides,Brownsburg-Chatham,Station de purification - Brownsburg-Chatham (sta. pur.),X0009520,45.676516,-74.4046061,Chloration
260,Laurentides,Brownsburg-Chatham,Station de purification - Brownsburg-Chatham (sta. pur.),X0009520,45.676516,-74.4046061,Filtration
261,Laurentides,Brownsburg-Chatham,Station de purification - Brownsburg-Chatham (sta. pur.),X0009520,45.676516,-74.4046061,Ultraviolet
262,Laurentides,Deux-Montagnes,Station de purification - Deux-Montagnes,X0010573,45.5255369,-73.9981516,Chloration
263,Laurentides,Deux-Montagnes,Station de purification - Deux-Montagnes,X0010573,45.5255369,-73.9981516,Filtration
264,Laurentides,Deux-Montagnes,Station de purification - Deux-Montagnes,X0010573,45.5255369,-73.9981516,Ultraviolet
265,Laurentides,Ferme-Neuve,Station de purification - Ferme-neuve (sta.pur.),X0009312,46.7010748,-75.4497514,Chloration
266,Laurentides,Ferme-Neuve,Station de purification - Ferme-neuve (sta.pur.),X0009312,46.7010748,-75.4497514,Filtration
267,Laurentides,Labelle,Station de purification - Labelle (post. chl.),X0009632,46.279106,-74.732094,Chloration
268,Laurentides,Labelle,Station de purification - Labelle (post. chl.),X0009632,46.279106,-74.732094,Ultraviolet
269,Laurentides,Lac-Saint-Paul,Poste d'eau potable (Lac-St-Paul) (Lac Boucher),X2146511,46.7314607,-75.3091123,None
270,Laurentides,Mirabel,Station de purification - Mirabel (St-Benoit - eau surface),X0009451,45.623402,-74.012489,Chloration
271,Laurentides,Mirabel,Station de purification - Mirabel (St-Benoit - eau surface),X0009451,45.623402,-74.012489,Filtration
272,Laurentides,Mont-Laurier,Station de purification - Mont-Laurier,X2105970,46.5523631,-75.497393,Chloration
273,Laurentides,Mont-Laurier,Station de purification - Mont-Laurier,X2105970,46.5523631,-75.497393,Filtration
274,Laurentides,Mont-Laurier,Station de purification - Mont-Laurier,X2105970,46.5523631,-75.497393,Charbon
275,Laurentides,Mont-Tremblant,Station de purification - Mont-Tremblant (La Diable sta. pur.),X0008873,46.11588,-74.5891426,Chloration
276,Laurentides,Mont-Tremblant,Station de purification - Mont-Tremblant (La Diable sta. pur.),X0008873,46.11588,-74.5891426,Filtration
277,Laurentides,Mont-Tremblant,Station de purification - Mont-tremblant (Lac Tremblant),X0008875,46.11588,-74.5891426,Chloration
278,Laurentides,Mont-Tremblant,Station de purification - Mont-tremblant (Lac Tremblant),X0008875,46.11588,-74.5891426,Filtration
279,Laurentides,Oka,Station de purification - Oka (sd) (sta. pur.),X0009429,45.4606283,-74.0901085,Chloration
280,Laurentides,Oka,Station de purification - Oka (sd) (sta. pur.),X0009429,45.4606283,-74.0901085,Filtration
281,Laurentides,Oka,Station de purification - Oka (sd) (sta. pur.),X0009429,45.4606283,-74.0901085,Ozonation
282,Laurentides,Rosemère,Station de purification - Rosemère,X0008485,45.6323155,-73.8052338,Chloration
283,Laurentides,Rosemère,Station de purification - Rosemère,X0008485,45.6323155,-73.8052338,Filtration
284,Laurentides,Rosemère,Station de purification - Rosemère,X0008485,45.6323155,-73.8052338,Charbon
285,Laurentides,Rosemère,Station de purification - Rosemère,X0008485,45.6323155,-73.8052338,Ultraviolet
286,Laurentides,Saint-Adolphe-d'Howard,Station de purification - Saint-Adolphe-d'Howard (sta.pur.terrasses),X0008139,45.9713455,-74.3392745,Chloration
287,Laurentides,Saint-Adolphe-d'Howard,Station de purification - Saint-Adolphe-d'Howard (sta.pur.terrasses),X0008139,45.9713455,-74.3392745,Filtration
288,Laurentides,Saint-Adolphe-d'Howard,Station de purification - Saint-Adolphe-d'Howard (sta.pur.terrasses),X0008139,45.9713455,-74.3392745,Ultraviolet
289,Laurentides,Saint-Adolphe-d'Howard,Station de purification - St-Adolphe-d'Howard (Village),X0008140,45.9713455,-74.3392745,Chloration
290,Laurentides,Saint-Eustache,Station de purification - St-Eustache (sta.pur.),X0008125,45.5646052,-73.8929714,Chloration
291,Laurentides,Saint-Eustache,Station de purification - St-Eustache (sta.pur.),X0008125,45.5646052,-73.8929714,Filtration
292,Laurentides,Saint-Eustache,Station de purification - St-Eustache (sta.pur.),X0008125,45.5646052,-73.8929714,Ozonation
293,Laurentides,Saint-Eustache,Station de purification - St-Eustache (sta.pur.),X0008125,45.5646052,-73.8929714,Charbon
294,Laurentides,Saint-Eustache,Station de purification - St-Eustache (sta.pur.),X0008125,45.5646052,-73.8929714,Ultraviolet
295,Laurentides,Saint-Jérôme,Station de purification - St-Jérôme (sta. pur.),X0008102,45.775426,-74.013176,Chloration
296,Laurentides,Saint-Jérôme,Station de purification - St-Jérôme (sta. pur.),X0008102,45.775426,-74.013176,Filtration
297,Laurentides,Saint-Jérôme,Station de purification - St-Jérôme (sta. pur.),X0008102,45.775426,-74.013176,Ultraviolet
298,Laurentides,Sainte-Agathe-des-Monts,Station de purification - Ste-Agathe-des-Monts (Petit Lac des Sables),X0008112,46.046072,-74.279938,Chloration
299,Laurentides,Sainte-Agathe-des-Monts,Station de purification - Ste-Agathe-des-Monts (Petit Lac des Sables),X0008112,46.046072,-74.279938,Filtration
300,Laurentides,Sainte-Agathe-des-Monts,Station de purification - Ste-Agathe-des-Monts (Petit Lac des Sables),X0008112,46.046072,-74.279938,Charbon
301,Laurentides,Sainte-Sophie,Station de purification - Ste-Sophie (sta.pur.),X0008782,45.818718,-73.8991887,Chloration
302,Laurentides,Sainte-Sophie,Station de purification - Ste-Sophie (sta.pur.),X0008782,45.818718,-73.8991887,Filtration
303,Laurentides,Sainte-Thérèse,Station de purification - Ste-Thérèse (sta. pur.),X0008104,45.6342923,-73.8362379,Chloration
304,Laurentides,Sainte-Thérèse,Station de purification - Ste-Thérèse (sta. pur.),X0008104,45.6342923,-73.8362379,Filtration
305,Laurentides,Sainte-Thérèse,Station de purification - Ste-Thérèse (sta. pur.),X0008104,45.6342923,-73.8362379,Ozonation
306,Laurentides,Sainte-Thérèse,Station de purification - Ste-Thérèse (sta. pur.),X0008104,45.6342923,-73.8362379,Charbon
307,Laval,Laval,Usine de filtration Chomedey (eau potable),X1300276,45.60558895,-73.7344173056906,Chloration
308,Laval,Laval,Usine de filtration Chomedey (eau potable),X1300276,45.60558895,-73.7344173056906,Filtration
309,Laval,Laval,Usine de filtration Chomedey (eau potable),X1300276,45.60558895,-73.7344173056906,Ozonation
310,Laval,Laval,Usine de filtration Pont-Viau (eau potable),X1300277,45.60558895,-73.7344173056906,Chloration
311,Laval,Laval,Usine de filtration Pont-Viau (eau potable),X1300277,45.60558895,-73.7344173056906,Filtration
312,Laval,Laval,Usine de filtration Pont-Viau (eau potable),X1300277,45.60558895,-73.7344173056906,Ozonation
313,Laval,Laval,Usine de filtration Sainte-Rose (eau potable),X1300278,45.60558895,-73.7344173056906,Chloration
314,Laval,Laval,Usine de filtration Sainte-Rose (eau potable),X1300278,45.60558895,-73.7344173056906,Filtration
315,Laval,Laval,Usine de filtration Sainte-Rose (eau potable),X1300278,45.60558895,-73.7344173056906,Ozonation
316,Laval,Laval,Usine de filtration Sainte-Rose (eau potable),X1300278,45.60558895,-73.7344173056906,Charbon
317,Mauricie,La Tuque,Station de purification La Tuque,X0010734,47.9697886,-73.8151045,Chloration
318,Mauricie,La Tuque,Station de purification La Tuque,X0010734,47.9697886,-73.8151045,Ultraviolet
319,Mauricie,La Tuque,Station de purification Parent,X0009538,47.9697886,-73.8151045,Chloration
320,Mauricie,La Tuque,Station de purification Parent,X0009538,47.9697886,-73.8151045,Filtration
321,Mauricie,Lac-aux-Sables,Station de purification Lac-aux-Sables,X0009409,46.862069,-72.394753,Chloration
322,Mauricie,Lac-aux-Sables,Station de purification Lac-aux-Sables,X0009409,46.862069,-72.394753,Ultraviolet
323,Mauricie,Saint-Tite,Station de purification Saint-Tite,X0008354,46.729742,-72.562294,Chloration
324,Mauricie,Shawinigan,"Station de purification Grand-Mère Lac-des-Piles, Shawinigan",X0008261,46.5389609,-72.7467621,Chloration
325,Mauricie,Shawinigan,"Système de production d'eau potable Shawinigan, Lac-à-la-Pêche",X0011550,46.5389609,-72.7467621,Chloration
326,Mauricie,Trois-Rivières,Station de purification Trois-Rivières,X0008077,46.3507999,-72.5571257,Chloration
327,Mauricie,Trois-Rivières,Station de purification Trois-Rivières,X0008077,46.3507999,-72.5571257,Filtration
328,Montérégie,Acton Vale,Station de purification Acton Vale,X0008756,45.6471564,-72.5654107,Chloration
329,Montérégie,Acton Vale,Station de purification Acton Vale,X0008756,45.6471564,-72.5654107,Filtration
330,Montérégie,Acton Vale,Station de purification Acton Vale,X0008756,45.6471564,-72.5654107,Ultraviolet
331,Montérégie,Beauharnois,Station de purification Beauharnois - sta. purif. complète,X0009678,45.3139778,-73.875834,Chloration
332,Montérégie,Beauharnois,Station de purification Beauharnois - sta. purif. complète,X0009678,45.3139778,-73.875834,Filtration
333,Montérégie,Beauharnois,Station de purification Beauharnois - sta. purif. complète,X0009678,45.3139778,-73.875834,Ultraviolet
334,Montérégie,Bedford,Station de purification - Ville de Bedford,X0008496,45.120537,-72.988701,Chloration
335,Montérégie,Bedford,Station de purification - Ville de Bedford,X0008496,45.120537,-72.988701,Filtration
336,Montérégie,Bedford,Station de purification - Ville de Bedford,X0008496,45.120537,-72.988701,Charbon
337,Montérégie,Bromont,Station de purification - Ville de Bromont,X0008690,45.318116,-72.657394,Chloration
338,Montérégie,Bromont,Station de purification - Ville de Bromont,X0008690,45.318116,-72.657394,Filtration
339,Montérégie,Bromont,Station de purification - Ville de Bromont,X0008690,45.318116,-72.657394,Ozonation
340,Montérégie,Bromont,Station de purification - Ville de Bromont,X0008690,45.318116,-72.657394,Charbon
341,Montérégie,Candiac,Station de purification Ville de Candiac,X0008160,45.3867947,-73.5163824,Chloration
342,Montérégie,Candiac,Station de purification Ville de Candiac,X0008160,45.3867947,-73.5163824,Filtration
343,Montérégie,Candiac,Station de purification Ville de Candiac,X0008160,45.3867947,-73.5163824,Ozonation
344,Montérégie,Carignan,Station de purification Régie secteau Chambly-Richelieu-Marieville,18188581,45.437955,-73.3554902,Chloration
345,Montérégie,Carignan,Station de purification Régie secteau Chambly-Richelieu-Marieville,18188581,45.437955,-73.3554902,Filtration
346,Montérégie,Carignan,Station de purification Régie secteau Chambly-Richelieu-Marieville,18188581,45.437955,-73.3554902,Ultraviolet
347,Montérégie,Carignan,Station de purification Carignan,X0008558,45.437955,-73.3554902,Chloration
348,Montérégie,Carignan,Station de purification Carignan,X0008558,45.437955,-73.3554902,Filtration
349,Montérégie,Châteauguay,Station de purification Ville de Châteauguay (poste chl.),X0010091,45.3619066,-73.7524319,Chloration
350,Montérégie,Châteauguay,Station de purification Ville de Châteauguay (poste chl.),X0010091,45.3619066,-73.7524319,Ultraviolet
351,Montérégie,Contrecoeur,Station de purification Contrecoeur,X0010036,45.8573781,-73.2374307,Chloration
352,Montérégie,Contrecoeur,Station de purification Contrecoeur,X0010036,45.8573781,-73.2374307,Filtration
353,Montérégie,Coteau-du-Lac,Station de purification Coteau-du-Lac,X0010401,45.2963957,-74.1782005,Chloration
354,Montérégie,Coteau-du-Lac,Station de purification Coteau-du-Lac,X0010401,45.2963957,-74.1782005,Filtration
355,Montérégie,Coteau-du-Lac,Station de purification Coteau-du-Lac,X0010401,45.2963957,-74.1782005,Ultraviolet
356,Montérégie,Cowansville,Station de purification Cowansville (autre traitement),X0008328,45.207445,-72.7480524,Chloration
357,Montérégie,Cowansville,Station de purification Cowansville (autre traitement),X0008328,45.207445,-72.7480524,Filtration
358,Montérégie,Cowansville,Station de purification Cowansville (autre traitement),X0008328,45.207445,-72.7480524,Charbon
359,Montérégie,Farnham,Station de purification - Ville de Farnham,X0008200,45.2831,-72.974968,Chloration
360,Montérégie,Farnham,Station de purification - Ville de Farnham,X0008200,45.2831,-72.974968,Filtration
361,Montérégie,Farnham,Station de purification - Ville de Farnham,X0008200,45.2831,-72.974968,Charbon
362,Montérégie,Granby,Station de purification Ville de Granby (station purification),X0009150,45.3990409,-72.721834,Chloration
363,Montérégie,Granby,Station de purification Ville de Granby (station purification),X0009150,45.3990409,-72.721834,Filtration
364,Montérégie,Granby,Station de purification Ville de Granby (station purification),X0009150,45.3990409,-72.721834,Charbon
365,Montérégie,Henryville,Station purification de la Régie intermunicipale d'approv. eau potable Henryville-Venise,X1606342,45.137008,-73.191605,Chloration
366,Montérégie,Henryville,Station purification de la Régie intermunicipale d'approv. eau potable Henryville-Venise,X1606342,45.137008,-73.191605,Filtration
367,Montérégie,Henryville,Station purification de la Régie intermunicipale d'approv. eau potable Henryville-Venise,X1606342,45.137008,-73.191605,Charbon
368,Montérégie,Huntingdon,Station de purification Huntingdon - sta. purif. complète,X0009050,45.087339,-74.173851,Chloration
369,Montérégie,Huntingdon,Station de purification Huntingdon - sta. purif. complète,X0009050,45.087339,-74.173851,Filtration
370,Montérégie,Huntingdon,Station de purification Huntingdon - sta. purif. complète,X0009050,45.087339,-74.173851,Charbon
371,Montérégie,L'Île-Perrot,Station de purification - Ville de L' Île-perrot,X0009381,45.39564905,-73.9600535354406,Chloration
372,Montérégie,L'Île-Perrot,Station de purification - Ville de L' Île-perrot,X0009381,45.39564905,-73.9600535354406,Filtration
373,Montérégie,L'Île-Perrot,Station de purification - Ville de L' Île-perrot,X0009381,45.39564905,-73.9600535354406,Ozonation
374,Montérégie,La Prairie,Station de purification Ville de La Prairie,X0009097,45.4174659,-73.4891644,Chloration
375,Montérégie,La Prairie,Station de purification Ville de La Prairie,X0009097,45.4174659,-73.4891644,Filtration
376,Montérégie,La Prairie,Station de purification Ville de La Prairie,X0009097,45.4174659,-73.4891644,Ozonation
377,Montérégie,La Prairie,Station de purification Ville de La Prairie,X0009097,45.4174659,-73.4891644,Ultraviolet
378,Montérégie,Lacolle,Station de purification Municipalité de Lacolle,X0008515,45.0796837,-73.3736934,Chloration
379,Montérégie,Lacolle,Station de purification Municipalité de Lacolle,X0008515,45.0796837,-73.3736934,Filtration
380,Montérégie,Lacolle,Station de purification Municipalité de Lacolle,X0008515,45.0796837,-73.3736934,Charbon
381,Montérégie,Les Coteaux,Station de purification Les Coteaux,X0010777,45.2596464,-74.2055161,Chloration
382,Montérégie,Les Coteaux,Station de purification Les Coteaux,X0010777,45.2596464,-74.2055161,Filtration
383,Montérégie,Longueuil,Station de purification Longueuil (local) - stat. purif.,X0008121,45.5172382,-73.4467466,Chloration
384,Montérégie,Longueuil,Station de purification Longueuil (local) - stat. purif.,X0008121,45.5172382,-73.4467466,Filtration
385,Montérégie,Longueuil,Station de purification Longueuil (local) - stat. purif.,X0008121,45.5172382,-73.4467466,Charbon
386,Montérégie,Longueuil,Station de purification Longueuil (local) - stat. purif.,X0008121,45.5172382,-73.4467466,Ultraviolet
387,Montérégie,Longueuil,Station de purification Longueuil (régional),X0008120,45.5172382,-73.4467466,Chloration
388,Montérégie,Longueuil,Station de purification Longueuil (régional),X0008120,45.5172382,-73.4467466,Filtration
389,Montérégie,Longueuil,Station de purification Longueuil (régional),X0008120,45.5172382,-73.4467466,Charbon
390,Montérégie,Longueuil,Station de purification Longueuil (régional),X0008120,45.5172382,-73.4467466,Ultraviolet
391,Montérégie,Longueuil,Station de purification Longueuil (Saint-Lambert) - Usine Le Royer,X0008136,45.5172382,-73.4467466,Chloration
392,Montérégie,Longueuil,Station de purification Longueuil (Saint-Lambert) - Usine Le Royer,X0008136,45.5172382,-73.4467466,Filtration
393,Montérégie,Longueuil,Station de purification Longueuil (Saint-Lambert) - Usine Le Royer,X0008136,45.5172382,-73.4467466,Charbon
394,Montérégie,Longueuil,Station de purification Longueuil (Saint-Lambert) - Usine Le Royer,X0008136,45.5172382,-73.4467466,Ultraviolet
395,Montérégie,Notre-Dame-de-l'Île-Perrot,Station de purification Régie de l'eau de L'Ile-Perrot,X0010436,45.3710606,-73.9038621927441,Chloration
396,Montérégie,Notre-Dame-de-l'Île-Perrot,Station de purification Régie de l'eau de L'Ile-Perrot,X0010436,45.3710606,-73.9038621927441,Filtration
397,Montérégie,Notre-Dame-de-l'Île-Perrot,Station de purification Régie de l'eau de L'Ile-Perrot,X0010436,45.3710606,-73.9038621927441,Ozonation
398,Montérégie,Otterburn Park,Station de purification Regie i.e.v.r. Otterburn Park,X0010216,45.5425651,-73.2020384,Chloration
399,Montérégie,Otterburn Park,Station de purification Regie i.e.v.r. Otterburn Park,X0010216,45.5425651,-73.2020384,Filtration
400,Montérégie,Otterburn Park,Station de purification Regie i.e.v.r. Otterburn Park,X0010216,45.5425651,-73.2020384,Ozonation
401,Montérégie,Saint-Damase,Station de purification Municipalité de Saint-Damase (Montérégie),X0008846,45.526795,-73.008614,Chloration
402,Montérégie,Saint-Damase,Station de purification Municipalité de Saint-Damase (Montérégie),X0008846,45.526795,-73.008614,Filtration
403,Montérégie,Saint-Damase,Station de purification Municipalité de Saint-Damase (Montérégie),X0008846,45.526795,-73.008614,Charbon
404,Montérégie,Saint-Denis-sur-Richelieu,Station de purif. Régie intermunicipale d'aqueduc du Bas-Richelieu (Régie de l'A.I.B.R.),21761408,45.7861328,-73.1571717,Chloration
405,Montérégie,Saint-Denis-sur-Richelieu,Station de purif. Régie intermunicipale d'aqueduc du Bas-Richelieu (Régie de l'A.I.B.R.),21761408,45.7861328,-73.1571717,Filtration
406,Montérégie,Saint-Denis-sur-Richelieu,Station de purif. Régie intermunicipale d'aqueduc du Bas-Richelieu (Régie de l'A.I.B.R.),21761408,45.7861328,-73.1571717,Ozonation
407,Montérégie,Saint-Hyacinthe,Station de purification Ville de Saint-Hyacinthe,X0010032,45.627484,-72.940636,Chloration
408,Montérégie,Saint-Hyacinthe,Station de purification Ville de Saint-Hyacinthe,X0010032,45.627484,-72.940636,Filtration
409,Montérégie,Saint-Hyacinthe,Station de purification Ville de Saint-Hyacinthe,X0010032,45.627484,-72.940636,Ozonation
410,Montérégie,Saint-Hyacinthe,Station de purification Ville de Saint-Hyacinthe,X0010032,45.627484,-72.940636,Charbon
411,Montérégie,Saint-Jean-sur-Richelieu,Station de purification Ville de Saint-Jean-sur-Richelieu (rive est),X0008118,45.3056879,-73.2533401,Chloration
412,Montérégie,Saint-Jean-sur-Richelieu,Station de purification Ville de Saint-Jean-sur-Richelieu (rive est),X0008118,45.3056879,-73.2533401,Filtration
413,Montérégie,Saint-Jean-sur-Richelieu,Station de purification Ville de Saint-Jean-sur-Richelieu (rive est),X0008118,45.3056879,-73.2533401,Charbon
414,Montérégie,Saint-Jean-sur-Richelieu,Station de purification Ville de Saint-Jean-sur-Richelieu (rive ouest),X0008108,45.3056879,-73.2533401,Chloration
415,Montérégie,Saint-Jean-sur-Richelieu,Station de purification Ville de Saint-Jean-sur-Richelieu (rive ouest),X0008108,45.3056879,-73.2533401,Filtration
416,Montérégie,Saint-Jean-sur-Richelieu,Station de purification Ville de Saint-Jean-sur-Richelieu (rive ouest),X0008108,45.3056879,-73.2533401,Ozonation
417,Montérégie,Saint-Jean-sur-Richelieu,Station de purification Ville de Saint-Jean-sur-Richelieu (rive ouest),X0008108,45.3056879,-73.2533401,Charbon
418,Montérégie,Saint-Pie,Station de purification Ville de St-Pie (filtration),X2067353,45.504903,-72.905273,Chloration
419,Montérégie,Saint-Pie,Station de purification Ville de St-Pie (filtration),X2067353,45.504903,-72.905273,Filtration
420,Montérégie,Saint-Pie,Station de purification Ville de St-Pie (filtration),X2067353,45.504903,-72.905273,Charbon
421,Montérégie,Saint-Zotique,Station de purification Saint-Zotique poste,X0008177,45.2425481,-74.2477841,Chloration
422,Montérégie,Saint-Zotique,Station de purification Saint-Zotique poste,X0008177,45.2425481,-74.2477841,Filtration
423,Montérégie,Saint-Zotique,Station de purification Saint-Zotique poste,X0008177,45.2425481,-74.2477841,Charbon
424,Montérégie,Saint-Zotique,Station de purification Saint-Zotique poste,X0008177,45.2425481,-74.2477841,Ultraviolet
425,Montérégie,Sainte-Barbe,Station de purification Ste-Barbe - trait. complet,X2135885,45.163144,-74.1955876,Chloration
426,Montérégie,Sainte-Barbe,Station de purification Ste-Barbe - trait. complet,X2135885,45.163144,-74.1955876,Filtration
427,Montérégie,Sainte-Barbe,Station de purification Ste-Barbe - trait. complet,X2135885,45.163144,-74.1955876,Ultraviolet
428,Montérégie,Salaberry-de-Valleyfield,Station de purification Salaberry-Valleyfield - traitement complet,X0008095,45.2555625,-74.1316153,Chloration
429,Montérégie,Salaberry-de-Valleyfield,Station de purification Salaberry-Valleyfield - traitement complet,X0008095,45.2555625,-74.1316153,Filtration
430,Montérégie,Salaberry-de-Valleyfield,Station de purification Salaberry-Valleyfield - traitement complet,X0008095,45.2555625,-74.1316153,Ozonation
431,Montérégie,Sorel-Tracy,"Station de purification - Régie Intermunicipale de l'eau Tracy, St-Joseph et St-Roch",X0008816,46.0435235,-73.1165159,Chloration
432,Montérégie,Sorel-Tracy,"Station de purification - Régie Intermunicipale de l'eau Tracy, St-Joseph et St-Roch",X0008816,46.0435235,-73.1165159,Filtration
433,Montérégie,Sorel-Tracy,"Station de purification - Régie Intermunicipale de l'eau Tracy, St-Joseph et St-Roch",X0008816,46.0435235,-73.1165159,Charbon
434,Montérégie,Sorel-Tracy,Station de purification Ville de Sorel-Tracy (secteur Sorel),X1605245,46.0435235,-73.1165159,Chloration
435,Montérégie,Sorel-Tracy,Station de purification Ville de Sorel-Tracy (secteur Sorel),X1605245,46.0435235,-73.1165159,Filtration
436,Montérégie,Sorel-Tracy,Station de purification Ville de Sorel-Tracy (secteur Sorel),X1605245,46.0435235,-73.1165159,Ozonation
437,Montérégie,Sutton,Station de purification Sutton (canton) - aut.traitement,X0008505,45.1109765,-72.6177899,Chloration
438,Montérégie,Sutton,Station de purification Sutton (canton) - aut.traitement,X0008505,45.1109765,-72.6177899,Filtration
439,Montérégie,Sutton,Station de purification Sutton (canton) - aut.traitement,X0008505,45.1109765,-72.6177899,Ultraviolet
440,Montérégie,Varennes,Station de purification Régie S.E.V. Varennes,19050129,45.6834691,-73.4362737,Chloration
441,Montérégie,Varennes,Station de purification Régie S.E.V. Varennes,19050129,45.6834691,-73.4362737,Filtration
442,Montérégie,Varennes,Station de purification Régie S.E.V. Varennes,19050129,45.6834691,-73.4362737,Ozonation
443,Montérégie,Varennes,Station de purification Régie S.E.V. Varennes,19050129,45.6834691,-73.4362737,Charbon
444,Montérégie,Vaudreuil-Dorion,Station de purification Vaudreuil-Dorion (Vaudreuil-Dorion - station purif.),X0010764,45.3971509,-74.0254577,Chloration
445,Montérégie,Vaudreuil-Dorion,Station de purification Vaudreuil-Dorion (Vaudreuil-Dorion - station purif.),X0010764,45.3971509,-74.0254577,Filtration
446,Montérégie,Vaudreuil-Dorion,Station de purification Vaudreuil-Dorion (Vaudreuil-Dorion - station purif.),X0010764,45.3971509,-74.0254577,Ozonation
447,Montérégie,Verchères,Station de purification - Municipalité de Verchères (sta.pur.),X0008624,45.7727845,-73.355442,Chloration
448,Montérégie,Verchères,Station de purification - Municipalité de Verchères (sta.pur.),X0008624,45.7727845,-73.355442,Filtration
449,Montréal,Dorval,Station de purification Dorval (usine),X0008924,45.4453082,-73.7510888,Chloration
450,Montréal,Dorval,Station de purification Dorval (usine),X0008924,45.4453082,-73.7510888,Filtration
451,Montréal,Dorval,Station de purification Dorval (usine),X0008924,45.4453082,-73.7510888,Charbon
452,Montréal,Montréal,Station de purification Lachine (usine 2),X0008090,45.4972159,-73.6103642,Chloration
453,Montréal,Montréal,Station de purification Lachine (usine 2),X0008090,45.4972159,-73.6103642,Filtration
454,Montréal,Montréal,Station de purification Lachine (usine 2),X0008090,45.4972159,-73.6103642,Ozonation
455,Montréal,Montréal,Station de purification Montréal (usine Atwater),X0008086,45.4972159,-73.6103642,Chloration
456,Montréal,Montréal,Station de purification Montréal (usine Atwater),X0008086,45.4972159,-73.6103642,Filtration
457,Montréal,Montréal,Station de purification Montréal (usine Atwater),X0008086,45.4972159,-73.6103642,Ozonation
458,Montréal,Montréal,Station de purification Montréal (usine Atwater),X0008086,45.4972159,-73.6103642,Ultraviolet
459,Montréal,Montréal,Station de purification Montreal (usine Desbaillets),X0008085,45.4972159,-73.6103642,Chloration
460,Montréal,Montréal,Station de purification Montreal (usine Desbaillets),X0008085,45.4972159,-73.6103642,Filtration
461,Montréal,Montréal,Station de purification Montreal (usine Desbaillets),X0008085,45.4972159,-73.6103642,Ozonation
462,Montréal,Montréal,Station de purification Montreal (usine Desbaillets),X0008085,45.4972159,-73.6103642,Ultraviolet
463,Montréal,Montréal,Station de purification Pierrefonds (usine),X0009132,45.4972159,-73.6103642,Chloration
464,Montréal,Montréal,Station de purification Pierrefonds (usine),X0009132,45.4972159,-73.6103642,Filtration
465,Montréal,Montréal,Station de purification Pierrefonds (usine),X0009132,45.4972159,-73.6103642,Ozonation
466,Montréal,Pointe-Claire,Station de purification Pointe-Claire (usine),X0008943,45.4566767,-73.8067442,Chloration
467,Montréal,Pointe-Claire,Station de purification Pointe-Claire (usine),X0008943,45.4566767,-73.8067442,Filtration
468,Montréal,Pointe-Claire,Station de purification Pointe-Claire (usine),X0008943,45.4566767,-73.8067442,Charbon
469,Nord-du-Québec,Akulivik,Akulivik - Approvisionnement,X2114284,60.8815681,-77.8102861666002,Chloration
470,Nord-du-Québec,Akulivik,Akulivik - Approvisionnement,X2114284,60.8815681,-77.8102861666002,Filtration
471,Nord-du-Québec,Akulivik,Akulivik - Approvisionnement,X2114284,60.8815681,-77.8102861666002,Ultraviolet
472,Nord-du-Québec,Aupaluk,Aupaluk - Approv.,X2114286,59.18439505,-69.979437773226,Chloration
473,Nord-du-Québec,Aupaluk,Aupaluk - Approv.,X2114286,59.18439505,-69.979437773226,Filtration
474,Nord-du-Québec,Aupaluk,Aupaluk - Approv.,X2114286,59.18439505,-69.979437773226,Ultraviolet
475,Nord-du-Québec,Chibougamau,Poste d'eau potable Chibougamau,X2114560,49.9137407,-74.3713954,Chloration
476,Nord-du-Québec,Chibougamau,Poste d'eau potable Chibougamau,X2114560,49.9137407,-74.3713954,Ultraviolet
477,Nord-du-Québec,Gouvernement régional d'Eeyou Istchee Baie-James,Radisson (localité) - Approv.,X2114259,49.7566137,-77.6303626256527,Chloration
478,Nord-du-Québec,Gouvernement régional d'Eeyou Istchee Baie-James,Radisson (localité) - Approv.,X2114259,49.7566137,-77.6303626256527,Filtration
479,Nord-du-Québec,Gouvernement régional d'Eeyou Istchee Baie-James,Radisson (localité) - Approv.,X2114259,49.7566137,-77.6303626256527,Ozonation
480,Nord-du-Québec,Gouvernement régional d'Eeyou Istchee Baie-James,Radisson (localité) - Approv.,X2114259,49.7566137,-77.6303626256527,Charbon
481,Nord-du-Québec,Gouvernement régional d'Eeyou Istchee Baie-James,Radisson (localité) - Approv.,X2114259,49.7566137,-77.6303626256527,Ultraviolet
482,Nord-du-Québec,Inukjuak,Inukjuak - Approvisionnement,X2114289,58.43810165,-77.9907171494236,Chloration
483,Nord-du-Québec,Inukjuak,Inukjuak - Approvisionnement,X2114289,58.43810165,-77.9907171494236,Filtration
484,Nord-du-Québec,Inukjuak,Inukjuak - Approvisionnement,X2114289,58.43810165,-77.9907171494236,Ultraviolet
485,Nord-du-Québec,Ivujivik,Ivujivik - Approvisionnement,X2114279,62.40590485,-77.6835932577687,Chloration
486,Nord-du-Québec,Ivujivik,Ivujivik - Approvisionnement,X2114279,62.40590485,-77.6835932577687,Filtration
487,Nord-du-Québec,Ivujivik,Ivujivik - Approvisionnement,X2114279,62.40590485,-77.6835932577687,Ultraviolet
488,Nord-du-Québec,Kangiqsualujjuaq,Kangiqsualujjuaq - Approv.,X2114288,58.6705511,-65.8465541113797,Chloration
489,Nord-du-Québec,Kangiqsualujjuaq,Kangiqsualujjuaq - Approv.,X2114288,58.6705511,-65.8465541113797,Filtration
490,Nord-du-Québec,Kangiqsualujjuaq,Kangiqsualujjuaq - Approv.,X2114288,58.6705511,-65.8465541113797,Ultraviolet
491,Nord-du-Québec,Kangiqsujuaq,Kangiqsujuaq - Approvisionnement,X2114290,61.578255,-71.714268512768,Chloration
492,Nord-du-Québec,Kangiqsujuaq,Kangiqsujuaq - Approvisionnement,X2114290,61.578255,-71.714268512768,Ultraviolet
493,Nord-du-Québec,Kangirsuk,Kangirsuk - Approvisionnement,X2114293,60.0806032,-70.1966928352944,Chloration
494,Nord-du-Québec,Kangirsuk,Kangirsuk - Approvisionnement,X2114293,60.0806032,-70.1966928352944,Filtration
495,Nord-du-Québec,Kangirsuk,Kangirsuk - Approvisionnement,X2114293,60.0806032,-70.1966928352944,Ultraviolet
496,Nord-du-Québec,Kuujjuaq,Kuujjuaq - Approvisionnement,X2114283,58.2201649,-68.4170552578665,Chloration
497,Nord-du-Québec,Lebel-sur-Quévillon,Lebel-sur-Quévillon - Approv.,X2114563,49.0532523,-76.9811596,Chloration
498,Nord-du-Québec,Lebel-sur-Quévillon,Lebel-sur-Quévillon - Approv.,X2114563,49.0532523,-76.9811596,Filtration
499,Nord-du-Québec,Matagami,Matagami - Approvisionnement,X2114243,49.7575884,-77.6300251,Chloration
500,Nord-du-Québec,Matagami,Matagami - Approvisionnement,X2114243,49.7575884,-77.6300251,Filtration
501,Nord-du-Québec,Puvirnituq,Puvirnituq - Approvisionnement,X2114321,60.04188355,-77.2801452424658,Chloration
502,Nord-du-Québec,Puvirnituq,Puvirnituq - Approvisionnement,X2114321,60.04188355,-77.2801452424658,Filtration
503,Nord-du-Québec,Puvirnituq,Puvirnituq - Approvisionnement,X2114321,60.04188355,-77.2801452424658,Ultraviolet
504,Nord-du-Québec,Quaqtaq,Quaqtaq - Approvisionnement,X2114291,60.9137462,-69.5619978667093,Chloration
505,Nord-du-Québec,Quaqtaq,Quaqtaq - Approvisionnement,X2114291,60.9137462,-69.5619978667093,Filtration
506,Nord-du-Québec,Quaqtaq,Quaqtaq - Approvisionnement,X2114291,60.9137462,-69.5619978667093,Ultraviolet
507,Nord-du-Québec,Salluit,Salluit - Approvisionnement,X2114282,62.1222358,-75.6689908519873,Chloration
508,Nord-du-Québec,Salluit,Salluit - Approvisionnement,X2114282,62.1222358,-75.6689908519873,Filtration
509,Nord-du-Québec,Salluit,Salluit - Approvisionnement,X2114282,62.1222358,-75.6689908519873,Ultraviolet
510,Nord-du-Québec,Tasiujaq,Tasiujaq - Approvisionnement,X2114287,58.56165135,-69.9712863738291,Chloration
511,Nord-du-Québec,Tasiujaq,Tasiujaq - Approvisionnement,X2114287,58.56165135,-69.9712863738291,Filtration
512,Nord-du-Québec,Tasiujaq,Tasiujaq - Approvisionnement,X2114287,58.56165135,-69.9712863738291,Ultraviolet
513,Nord-du-Québec,Umiujaq,Umiujaq - Approvisionnement,X2114318,56.522435,-76.4478997264261,Chloration
514,Nord-du-Québec,Umiujaq,Umiujaq - Approvisionnement,X2114318,56.522435,-76.4478997264261,Filtration
515,Nord-du-Québec,Umiujaq,Umiujaq - Approvisionnement,X2114318,56.522435,-76.4478997264261,Ultraviolet
516,Outaouais,Bryson,Station de purification Bryson (post.chl.),X0009407,45.6749131,-76.6186413,Chloration
517,Outaouais,Fort-Coulonge,Station de purification Fort-Coulonge (post.chl.),X0009273,45.8410995,-76.7364529,Chloration
518,Outaouais,Fort-Coulonge,Station de purification Fort-Coulonge (post.chl.),X0009273,45.8410995,-76.7364529,Filtration
519,Outaouais,Fort-Coulonge,Station de purification Fort-Coulonge (post.chl.),X0009273,45.8410995,-76.7364529,Ozonation
520,Outaouais,Fort-Coulonge,Station de purification Fort-Coulonge (post.chl.),X0009273,45.8410995,-76.7364529,Charbon
521,Outaouais,Gatineau,Station de purification Aylmer (sta.pur.),X0008329,45.457241,-75.723267,Chloration
522,Outaouais,Gatineau,Station de purification Aylmer (sta.pur.),X0008329,45.457241,-75.723267,Filtration
523,Outaouais,Gatineau,Station de purification Aylmer (sta.pur.),X0008329,45.457241,-75.723267,Ozonation
524,Outaouais,Gatineau,Station de purification Buckingham (sta.pur.),X0008332,45.457241,-75.723267,Chloration
525,Outaouais,Gatineau,Station de purification Buckingham (sta.pur.),X0008332,45.457241,-75.723267,Filtration
526,Outaouais,Gatineau,Station de purification Buckingham (sta.pur.),X0008332,45.457241,-75.723267,Ozonation
527,Outaouais,Gatineau,Station de purification Gatineau (sta.pur.),X0008331,45.457241,-75.723267,Chloration
528,Outaouais,Gatineau,Station de purification Gatineau (sta.pur.),X0008331,45.457241,-75.723267,Filtration
529,Outaouais,Gatineau,Station de purification Hull (sta.pur.),X0008330,45.457241,-75.723267,Chloration
530,Outaouais,Gatineau,Station de purification Hull (sta.pur.),X0008330,45.457241,-75.723267,Filtration
531,Outaouais,Gracefield,Station de purification Gracefield (post.chl.),X0008146,46.0933721,-76.0531906,Chloration
532,Outaouais,Gracefield,Station de purification Gracefield (post.chl.),X0008146,46.0933721,-76.0531906,Filtration
533,Outaouais,Gracefield,Station de purification Gracefield (post.chl.),X0008146,46.0933721,-76.0531906,Ozonation
534,Outaouais,Gracefield,Station de purification Gracefield (post.chl.),X0008146,46.0933721,-76.0531906,Charbon
535,Outaouais,Montebello,Station de purification Montebello (post.chl.),X0009545,45.6512171,-74.942673,Chloration
536,Outaouais,Montebello,Station de purification Montebello (post.chl.),X0009545,45.6512171,-74.942673,Filtration
537,Outaouais,Montebello,Station de purification Montebello (post.chl.),X0009545,45.6512171,-74.942673,Ozonation
538,Outaouais,Pontiac,Station de purification Pontiac (post.chl.),X0009983,46.5896034,-77.2781003,Chloration
539,Outaouais,Portage-du-Fort,Station de purification Portage-du-Fort (post.chl.),X0009422,45.593861,-76.662254,Chloration
540,Outaouais,Thurso,Station de purification Thurso (sta.pur.),X0008164,45.598185,-75.246048,Chloration
541,Outaouais,Thurso,Station de purification Thurso (sta.pur.),X0008164,45.598185,-75.246048,Filtration
542,Saguenay—Lac-Saint-Jean,Alma,Station de purification Alma (usine de filtration),X0010053,48.548887,-71.651459,Chloration
543,Saguenay—Lac-Saint-Jean,Alma,Station de purification Alma (usine de filtration),X0010053,48.548887,-71.651459,Filtration
544,Saguenay—Lac-Saint-Jean,Dolbeau-Mistassini,Poste d'eau potable du secteur Mistassini,X0010045,48.883231,-72.233734,Chloration
545,Saguenay—Lac-Saint-Jean,Dolbeau-Mistassini,Poste d'eau potable du secteur Mistassini,X0010045,48.883231,-72.233734,Filtration
546,Saguenay—Lac-Saint-Jean,Dolbeau-Mistassini,Station de purification Dolbeau (stat. pur.),X0009850,48.883231,-72.233734,Chloration
547,Saguenay—Lac-Saint-Jean,Dolbeau-Mistassini,Station de purification Dolbeau (stat. pur.),X0009850,48.883231,-72.233734,Filtration
548,Saguenay—Lac-Saint-Jean,Lac-Bouchette,Station d'approvisionnement Lac-Bouchette,X2105066,48.2407963,-72.2034111145962,Chloration
549,Saguenay—Lac-Saint-Jean,Lac-Bouchette,Station d'approvisionnement Lac-Bouchette,X2105066,48.2407963,-72.2034111145962,Filtration
550,Saguenay—Lac-Saint-Jean,Lac-Bouchette,Station d'approvisionnement Lac-Bouchette,X2105066,48.2407963,-72.2034111145962,Ultraviolet
551,Saguenay—Lac-Saint-Jean,Péribonka,Poste d'eau potable de Péribonka,X0009828,48.7664009,-72.0527581,Chloration
552,Saguenay—Lac-Saint-Jean,Péribonka,Poste d'eau potable de Péribonka,X0009828,48.7664009,-72.0527581,Filtration
553,Saguenay—Lac-Saint-Jean,Péribonka,Poste d'eau potable de Péribonka,X0009828,48.7664009,-72.0527581,Ultraviolet
554,Saguenay—Lac-Saint-Jean,Roberval,Station de purification Roberval (station purification),X0010100,48.514785,-72.224808,Chloration
555,Saguenay—Lac-Saint-Jean,Roberval,Station de purification Roberval (station purification),X0010100,48.514785,-72.224808,Filtration
556,Saguenay—Lac-Saint-Jean,Saguenay,Poste d'eau potable de Saguenay (Chicoutimi-Nord),X0010044,48.405959,-71.069183,Chloration
557,Saguenay—Lac-Saint-Jean,Saguenay,Poste d'eau potable de Saguenay (Chicoutimi-Nord),X0010044,48.405959,-71.069183,Filtration
558,Saguenay—Lac-Saint-Jean,Saguenay,Poste d'eau potable de Saguenay (Chicoutimi-Nord),X0010044,48.405959,-71.069183,Ultraviolet
559,Saguenay—Lac-Saint-Jean,Saguenay,Station de purification - Secteur Jonquière,X0009978,48.405959,-71.069183,Chloration
560,Saguenay—Lac-Saint-Jean,Saguenay,Station de purification - Secteur Jonquière,X0009978,48.405959,-71.069183,Filtration
561,Saguenay—Lac-Saint-Jean,Saguenay,Station de purification Chicoutimi (sta. pur.),X0010043,48.405959,-71.069183,Chloration
562,Saguenay—Lac-Saint-Jean,Saguenay,Station de purification Chicoutimi (sta. pur.),X0010043,48.405959,-71.069183,Filtration
563,Saguenay—Lac-Saint-Jean,Saguenay,Station de purification Jonquiere (secteur Arvida),X0009979,48.405959,-71.069183,Chloration
564,Saguenay—Lac-Saint-Jean,Saguenay,Station de purification Jonquiere (secteur Arvida),X0009979,48.405959,-71.069183,Filtration
565,Saguenay—Lac-Saint-Jean,Saint-David-de-Falardeau,"Station de purification - Post chl. (Village alpin ""Le Valinouet"")",X0009613,48.621563,-71.111069,Chloration
566,Saguenay—Lac-Saint-Jean,Saint-Nazaire,Poste d'eau potable de Saint-Nazaire de Chicoutimi,X0009588,48.5881118,-71.5498338,Chloration
567,Saguenay—Lac-Saint-Jean,Saint-Nazaire,Poste d'eau potable de Saint-Nazaire de Chicoutimi,X0009588,48.5881118,-71.5498338,Filtration
568,Saguenay—Lac-Saint-Jean,Saint-Nazaire,Poste d'eau potable de Saint-Nazaire de Chicoutimi,X0009588,48.5881118,-71.5498338,Ultraviolet
569,Saguenay—Lac-Saint-Jean,Sainte-Jeanne-d'Arc,Poste d'eau potable de Sainte-Jeanne-d'Arc,X0009834,48.8650471,-72.0840192,Chloration
570,Saguenay—Lac-Saint-Jean,Sainte-Jeanne-d'Arc,Poste d'eau potable de Sainte-Jeanne-d'Arc,X0009834,48.8650471,-72.0840192,Filtration
571,Saguenay—Lac-Saint-Jean,Sainte-Jeanne-d'Arc,Poste d'eau potable de Sainte-Jeanne-d'Arc,X0009834,48.8650471,-72.0840192,Ultraviolet
